SPAINSAT                
1 28945U 06007A   26171.33795515 -.00000221  00000+0  00000+0 0  9990
2 28945   0.5725  86.4734 0004829 359.2835 274.2855  1.00272395 74248
JCSAT-5A                
1 29045U 06010A   26171.48584654 -.00000332  00000+0  00000+0 0  9995
2 29045   1.1192  84.1884 0002010 350.8139 140.6470  1.00271456 73807
ASTRA 1KR               
1 29055U 06012A   26171.32444138  .00000114  00000+0  00000+0 0  9990
2 29055   0.4831  83.2137 0003417   1.9229 319.1766  1.00273147 45727
GALAXY 16 (G-16)        
1 29236U 06023A   26171.37239705 -.00000131  00000+0  00000+0 0  9990
2 29236   0.0399 169.8247 0002593 277.9696 215.8483  1.00271600 73005
EUTELSAT 33F            
1 29270U 06032A   26171.32695471  .00000151  00000+0  00000+0 0  9990
2 29270   1.6709  82.2134 0003855   4.8576 332.2502  1.00272297 47330
JCSAT-3A                
1 29272U 06033A   26171.45192605 -.00000349  00000+0  00000+0 0  9998
2 29272   0.0093 338.5051 0002344 124.5781  96.2587  1.00270195 47779
KOREASAT 5 (MUGUNGWHA 5)
1 29349U 06034A   26171.41438541 -.00000363  00000+0  00000+0 0  9998
2 29349   1.7946  82.9602 0001386  50.6116  37.2889  1.00272700 41359
DIRECTV 9S              
1 29494U 06043A   26171.35461541 -.00000118  00000+0  00000+0 0  9996
2 29494   2.4300  80.8686 0005074  14.6015 199.5571  1.00271223 51414
OPTUS D1                
1 29495U 06043B   26171.46727737 -.00000189  00000+0  00000+0 0  9999
2 29495   3.0443  79.6192 0003494   1.4851 147.7714  1.00271392 72159
BADR-4                  
1 29526U 06051A   26171.25621685  .00000150  00000+0  00000+0 0  9992
2 29526   2.0138  81.0913 0004839 359.0702 314.9792  1.00272848 51296
WILDBLUE-1              
1 29643U 06054A   26171.36997036 -.00000054  00000+0  00000+0 0  9997
2 29643   2.8124  80.4454 0001466   0.2217 209.8913  1.00271685 53827
SKYNET 5A               
1 30794U 07007B   26170.76923227 -.00000279  00000+0  00000+0 0  9998
2 30794   5.3067  73.7105 0003786  18.1377 188.2627  1.00274097 70720
ANIK F3                 
1 31102U 07009A   26171.41331935 -.00000006  00000+0  00000+0 0  9994
2 31102   1.2069  83.8169 0002606   6.0698 208.8044  1.00273057 46590
ASTRA 1L                
1 31306U 07016A   26171.38713045 -.00000189  00000+0  00000+0 0  9992
2 31306   1.3311  81.5582 0005349  13.7881 288.1363  1.00270966 45014
GALAXY 17 (G-17)        
1 31307U 07016B   26171.37517041 -.00000211  00000+0  00000+0 0  9996
2 31307   2.9813  79.8634 0004780  19.9713 218.7990  1.00271439 69834
INTELSAT 11 (IS-11)     
1 32253U 07044B   26171.05797054 -.00000176  00000+0  00000+0 0  9997
2 32253   3.5740  78.6372 0002522  87.4130 236.3380  0.99049599 68477
WGS F1 (USA 195)        
1 32258U 07046A   26171.38357711 -.00000272  00000+0  00000+0 0  9999
2 32258   0.0383  86.7161 0000212 317.9374 319.5139  1.00271069 52367
SKYNET 5B               
1 32294U 07056B   26171.32574138  .00000134  00000+0  00000+0 0  9994
2 32294   5.2597  73.4683 0003894  10.4067 327.0857  1.00276241 68226
ASTRA 4A                
1 32299U 07057A   26171.39293715  .00000028  00000+0  00000+0 0  9998
2 32299   0.0127 340.0552 0002413 112.4942 322.3133  1.00273096 51673
HORIZONS-2              
1 32388U 07063B   26171.37127980 -.00000259  00000+0  00000+0 0  9999
2 32388   2.6113  80.5890 0003923   0.1145 247.7301  1.00272829 67847
THURAYA-3               
1 32404U 08001A   26171.12134348 -.00000030  00000+0  00000+0 0  9997
2 32404   5.9949  35.8105 0001598 152.5813 196.8472  1.00007771 67510
THOR 5                  
1 32487U 08006A   26171.24928350 -.00000014  00000+0  00000+0 0  9992
2 32487   0.0521 255.4404 0002444 198.7766 263.2281  1.00272539 67349
AMC-14                  
1 32708U 08011A   26171.12004348 -.00000068  00000+0  00000+0 0  9992
2 32708  24.0077  20.4835 0045448   7.3617 350.1570  1.00355445 68195
DIRECTV 11              
1 32729U 08013A   26170.94465848 -.00000131  00000+0  00000+0 0  9993
2 32729   0.0260 219.1273 0000180 197.2081  92.7255  1.00271356 45627
ICO G1                  
1 32763U 08016A   26171.34056133 -.00000179  00000+0  00000+0 0  9994
2 32763   5.5298  36.1240 0002250  41.2164 220.9677  1.00272667 66573
VINASAT-1               
1 32767U 08018A   26171.45486035 -.00000332  00000+0  00000+0 0  9991
2 32767   0.0148 320.4183 0001468 132.4887 111.4518  1.00272118 66626
STAR ONE C2             
1 32768U 08018B   26171.37915707 -.00000281  00000+0  00000+0 0  9999
2 32768   1.2501  82.4387 0002592  11.9078 245.7346  1.00272898 66687
AMOS-3                  
1 32794U 08022A   26171.18631704  .00000128  00000+0  00000+0 0  9993
2 32794   0.4641  86.1836 0002140  70.0111 220.3951  1.00478427 82365
GALAXY 18 (G-18)        
1 32951U 08024A   26171.39489199  .00000021  00000+0  00000+0 0  9994
2 32951   0.0235  71.4002 0002919  16.2942 200.0680  1.00271433 45883
ZHONGXING-9             
1 33051U 08028A   26172.40841103 -.00000251  00000+0  00000+0 0  9996
2 33051   0.7809  85.3026 0003838 343.5737  80.1354  1.00272275 66083
SKYNET 5C               
1 33055U 08030A   26171.38851713 -.00000145  00000+0  00000+0 0  9999
2 33055   3.7981  77.0053 0004099  19.6039 294.0630  1.00271687 65982
TURKSAT 3A              
1 33056U 08030B   26171.25769021  .00000141  00000+0  00000+0 0  9991
2 33056   0.0640  80.9679 0005125 352.7047 329.5366  1.00272302 52388
INTELSAT 25 (IS-25)     
1 33153U 08034A   26171.41325874 -.00000133  00000+0  00000+0 0  9997
2 33153   2.7194  80.3377 0003595  60.7301  23.6093  0.99033445 65727
ECHOSTAR 11             
1 33207U 08035A   26171.36017014 -.00000062  00000+0  00000+0 0  9997
2 33207   1.0145  84.1489 0002598 344.4932 219.7890  1.00270893 51243
SUPERBIRD-C2            
1 33274U 08038A   26171.45629023 -.00000311  00000+0  00000+0 0  9990
2 33274   2.3705  81.2250 0006108  26.3892 101.3120  1.00271955105768
INMARSAT 4-F3           
1 33278U 08039A   26171.35461541 -.00000147  00000+0  00000+0 0  9990
2 33278   4.2956  31.6330 0002747  59.7887 206.8106  1.00272478 46577
NIMIQ 4                 
1 33373U 08044A   26171.37577706  .00000000  00000+0  00000+0 0  9992
2 33373   0.0407  55.0646 0002058  36.3314 230.5036  1.00266901 65019
GALAXY 19 (G-19)        
1 33376U 08045A   26171.37283038 -.00000144  00000+0  00000+0 0  9998
2 33376   0.0278 264.2718 0002625 191.2038 210.3278  1.00271248 64930
ASTRA 1M                
1 33436U 08057A   26171.32452803  .00000116  00000+0  00000+0 0  9999
2 33436   0.3056  82.5193 0004908  26.1383 296.0779  1.00273362 45763
EUTELSAT HOTBIRD 13C    
1 33459U 08065A   26171.38201711 -.00000288  00000+0  00000+0 0  9990
2 33459   2.9595  79.1570 0003462   9.9025 266.7513  1.00269969 47378
EXPRESS-AM44            
1 33595U 09007A   26172.38792899 -.00000092  00000+0  00000+0 0  9994
2 33595   3.4757  78.3467 0003919   3.2357 316.6360  1.00270921 52329
NSS-9                   
1 33749U 09008A   26171.35695513  .00000067  00000+0  00000+0 0  9998
2 33749   1.2711  82.6304 0002072 348.7007 148.7959  1.00271482 63550
TELSTAR 11N             
1 34111U 09009A   26171.20647115 -.00000256  00000+0  00000+0 0  9993
2 34111   0.0298  74.3216 0002329  17.9253 212.9246  1.00269868 46272
WGS F2 (USA 204)        
1 34713U 09017A   26171.26294977  .00000063  00000+0  00000+0 0  9995
2 34713   0.0187  14.3909 0000041 351.5807  54.6689  1.00272406 45645
SES-7 (PROTOSTAR 2)     
1 34941U 09027A   26171.41343206 -.00000349  00000+0  00000+0 0  9994
2 34941   0.0464  72.0603 0000445 282.4348 171.2077  1.00270419 62668
MEASAT-3A               
1 35362U 09032A   26171.46287559 -.00000115  00000+0  00000+0 0  9992
2 35362   0.0229   9.7367 0002991  72.4870 153.0950  1.00271965  8063
GOES 14                 
1 35491U 09033A   26171.34840896 -.00000308  00000+0  00000+0 0  9996
2 35491   1.6993  83.0080 0001921  13.0479  77.9267  1.00110067  6626
FM-5                    
1 35493U 09034A   26171.38377977 -.00000205  00000+0  00000+0 0  9994
2 35493   0.0202 292.9387 0000851  30.9605 356.6938  1.00272217 46672
TERRESTAR-1             
1 35496U 09035A   26171.41918265 -.00000063  00000+0  00000+0 0  9995
2 35496   5.1794  48.7956 0002690  33.8323 225.8999  1.00272882 62162
ASIASAT 5               
1 35696U 09042A   26172.55256350  .00000000  00000+0  00000+0 0  9991
2 35696   0.0349  55.7951 0001538  37.1346 116.3031  1.00265222 61754
JCSAT-12 (JCSAT-RA)     
1 35755U 09044A   26171.45486034 -.00000332  00000+0  00000+0 0  9990
2 35755   0.0120 356.2714 0000677 303.6782 264.5034  1.00269413 61644
OPTUS D3                
1 35756U 09044B   26170.92388350 -.00000151  00000+0  00000+0 0  9993
2 35756   0.8768 268.9127 0002959 176.0247 311.9383  1.00270138 61595
NIMIQ 5                 
1 35873U 09050A   26171.37759707  .00000000  00000+0  00000+0 0  9990
2 35873   0.0204  10.6229 0002780  73.2484 247.9606  1.00269631 61378
AMAZONAS 2              
1 35942U 09054A   26171.37777042 -.00000264  00000+0  00000+0 0  9996
2 35942   1.8249  83.0119 0003227   7.8469 241.7331  1.00272500 61217
COMSATBW-1              
1 35943U 09054B   26171.11935014  .00000020  00000+0  00000+0 0  9993
2 35943   0.0525 157.9793 0002841 289.0909 287.2692  1.00269250 61335
NSS-12                  
1 36032U 09058A   26171.40333720  .00000067  00000+0  00000+0 0  9996
2 36032   0.0895 275.1676 0005078 143.7680  51.8750  1.00273043 60957
THOR 6                  
1 36033U 09058B   26171.24928350 -.00000015  00000+0  00000+0 0  9992
2 36033   0.0302 109.2282 0001684 338.7514 269.3800  1.00271829 61034
INTELSAT 14 (IS-14)     
1 36097U 09064A   26171.38305711 -.00000278  00000+0  00000+0 0  9995
2 36097   0.0165 337.1078 0002399 111.3226 273.0700  1.00271535 60635
EUTELSAT 36B            
1 36101U 09065A   26171.40203720  .00000108  00000+0  00000+0 0  9993
2 36101   0.5002  81.1638 0005548   5.9114  16.7617  1.00269534 60744
